NORAD_CAT_ID,OBJECT_NAME,OBJECT_TYPE,EPOCH,MEAN_MOTION,ECCENTRICITY,INCLINATION,RA_OF_ASC_NODE,ARG_OF_PERICENTER,MEAN_ANOMALY,BSTAR,MEAN_MOTION_DOT,MEAN_MOTION_DDOT,TLE_LINE0,TLE_LINE1,TLE_LINE2,SEMIMAJOR_AXIS,PERIOD,APOGEE,PERIGEE,DECAYED
53559.0,STARLINK-4508,PAYLOAD,2023-01-23 09:43:25,15.08838287,0.0001986,53.2167,147.5517,91.0792,269.0428,2.8545e-05,1.66e-06,0.0,0 STARLINK-4508,1 53559U 22101AJ  23023.40515433  .00000166  00000-0  28545-4 0  9999,2 53559  53.2167 147.5517 0001986  91.0792 269.0428 15.08838287 24013,6917.886,95.438,541.125,538.377,0.0
53559.0,STARLINK-4508,PAYLOAD,2023-01-24 11:09:35,15.08841904,0.0001649,53.2171,142.7944,96.7917,263.3263,0.00014042,1.948e-05,0.0,0 STARLINK-4508,1 53559U 22101AJ  23024.46499185  .00001948  00000-0  14042-3 0  9996,2 53559  53.2171 142.7944 0001649  96.7917 263.3263 15.08841904 24177,6917.875,95.437,540.88,538.599,0.0
53559.0,STARLINK-4508,PAYLOAD,2023-01-24 14:20:21,15.08851276,0.0001702,53.217,142.1995,92.5458,267.5729,0.00026511,3.935e-05,0.0,0 STARLINK-4508,1 53559U 22101AJ  23024.59746738  .00003935  00000-0  26511-3 0  9991,2 53559  53.2170 142.1995 0001702  92.5458 267.5729 15.08851276 24198,6917.846,95.437,540.888,538.534,0.0
53559.0,STARLINK-4508,PAYLOAD,2023-01-25 03:03:26,15.08842352,0.0001636,53.2185,139.8206,114.8606,245.2556,5.0437e-06,-2.08e-06,0.0,0 STARLINK-4508,1 53559U 22101AJ  23025.12738929 -.00000208  00000-0  50437-5 0  9991,2 53559  53.2185 139.8206 0001636 114.8606 245.2556 15.08842352 24276,6917.8730000000005,95.437,540.87,538.606,0.0
53559.0,STARLINK-4508,PAYLOAD,2023-01-25 11:00:22,15.08831383,0.0001708,53.2163,138.3349,85.2334,274.8853,3.2922e-05,2.36e-06,0.0,0 STARLINK-4508,1 53559U 22101AJ  23025.45859931  .00000236  00000-0  32922-4 0  9992,2 53559  53.2163 138.3349 0001708  85.2334 274.8853 15.08831383 24329,6917.906999999999,95.438,540.953,538.59,0.0
53559.0,STARLINK-4508,PAYLOAD,2023-01-25 14:11:09,15.08834864,0.0001574,53.2166,137.7395,85.7168,274.4004,8.097e-05,1.001e-05,0.0,0 STARLINK-4508,1 53559U 22101AJ  23025.59107845  .00001001  00000-0  80970-4 0  9994,2 53559  53.2166 137.7395 0001574  85.7168 274.4004 15.08834864 24340,6917.896,95.438,540.85,538.672,0.0
53559.0,STARLINK-4508,PAYLOAD,2023-01-26 12:26:32,15.08850318,0.0001635,53.2161,133.5772,77.4174,282.7,0.00037404,5.672e-05,0.0,0 STARLINK-4508,1 53559U 22101AJ  23026.51843431  .00005672  00000-0  37404-3 0  9996,2 53559  53.2161 133.5772 0001635  77.4174 282.7000 15.08850318 24486,6917.849,95.437,540.845,538.5830000000001,0.0
53559.0,STARLINK-4508,PAYLOAD,2023-01-27 02:45:01,15.08842548,0.0001773,53.2159,130.9033,90.242,269.8775,0.00020443,2.967e-05,0.0,0 STARLINK-4508,1 53559U 22101AJ  23027.11459677  .00002967  00000-0  20443-3 0  9997,2 53559  53.2159 130.9033 0001773  90.2420 269.8775 15.08842548 24575,6917.8730000000005,95.437,540.964,538.511,0.0
53559.0,STARLINK-4508,PAYLOAD,2023-01-27 09:06:34,15.08827127,0.0001602,53.2151,129.7108,83.9201,276.1974,2.8568e-05,1.67e-06,0.0,0 STARLINK-4508,1 53559U 22101AJ  23027.37956530  .00000167  00000-0  28568-4 0  9992,2 53559  53.2151 129.7108 0001602  83.9201 276.1974 15.08827127 24616,6917.92,95.438,540.893,538.6759999999999,0.0
53559.0,STARLINK-4508,PAYLOAD,2023-01-27 12:17:20,15.08833508,0.0001506999999999,53.2155,129.1162,83.5286,276.5878,0.00010279,1.348e-05,0.0,0 STARLINK-4508,1 53559U 22101AJ  23027.51204037  .00001348  00000-0  10279-3 0  9997,2 53559  53.2155 129.1162 0001507  83.5286 276.5878 15.08833508 24636,6917.9,95.438,540.808,538.7230000000001,0.0
53559.0,STARLINK-4508,PAYLOAD,2023-01-28 13:43:30,15.08839251,0.0001609,53.2151,124.3588,87.2473,272.8703,2.93e-05,1.78e-06,0.0,0 STARLINK-4508,1 53559U 22101AJ  23028.57187942  .00000178  00000-0  29300-4 0  9995,2 53559  53.2151 124.3588 0001609  87.2473 272.8703 15.08839251 24797,6917.883,95.438,540.861,538.635,0.0
53559.0,STARLINK-4508,PAYLOAD,2023-01-28 15:18:53,15.0884489,0.0001425,53.215,124.059,85.0169,275.0986,4.6304e-05,4.49e-06,0.0,0 STARLINK-4508,1 53559U 22101AJ  23028.63811563  .00000449  00000-0  46304-4 0  9999,2 53559  53.2150 124.0590 0001425  85.0169 275.0986 15.08844890 24805,6917.865,95.437,540.716,538.745,0.0
53559.0,STARLINK-4508,PAYLOAD,2023-01-28 23:15:49,15.08840624,0.0001631,53.2168,122.5736,79.7099,280.4077,5.6257e-05,6.07e-06,0.0,0 STARLINK-4508,1 53559U 22101AJ  23028.96932117  .00000607  00000-0  56257-4 0  9998,2 53559  53.2168 122.5736 0001631  79.7099 280.4077 15.08840624 24857,6917.878,95.438,540.872,538.615,0.0
53559.0,STARLINK-4508,PAYLOAD,2023-01-29 10:23:31,15.08827148,0.00014,53.2181,120.4929,84.0568,276.0584,0.00016921,2.405e-05,0.0,0 STARLINK-4508,1 53559U 22101AJ  23029.43300787  .00002405  00000-0  16921-3 0  9994,2 53559  53.2181 120.4929 0001400  84.0568 276.0584 15.08827148 24925,6917.92,95.438,540.753,538.816,0.0
53559.0,STARLINK-4508,PAYLOAD,2023-01-29 15:09:41,15.08823601,0.0001085,53.2168,119.601,90.077,270.0347,-4.0842e-05,-9.37e-06,0.0,0 STARLINK-4508,1 53559U 22101AJ  23029.63173569 -.00000937  00000-0 -40842-4 0  9992,2 53559  53.2168 119.6010 0001085  90.0770 270.0347 15.08823601 24956,6917.931,95.439,540.546,539.045,0.0
53559.0,STARLINK-4508,PAYLOAD,2023-01-30 13:25:05,15.08837249,0.0001275,53.2175,115.4379,91.2706,268.8432,7.6564e-05,9.31e-06,0.0,0 STARLINK-4508,1 53559U 22101AJ  23030.55909443  .00000931  00000-0  76564-4 0  9995,2 53559  53.2175 115.4379 0001275  91.2706 268.8432 15.08837249 25098,6917.889,95.438,540.636,538.872,0.0
53559.0,STARLINK-4508,PAYLOAD,2023-01-30 22:57:24,15.08846365,0.0001257,53.2174,113.655,83.7455,276.3681,8.5838e-05,1.079e-05,0.0,0 STARLINK-4508,1 53559U 22101AJ  23030.95652908  .00001079  00000-0  85838-4 0  9998,2 53559  53.2174 113.6550 0001257  83.7455 276.3681 15.08846365 25151,6917.861,95.437,540.596,538.856,0.0
53559.0,STARLINK-4508,PAYLOAD,2023-01-31 11:40:29,15.08854243,0.0001026,53.2164,111.2761,59.1276,300.9817,0.00043702,6.677e-05,0.0,0 STARLINK-4508,1 53559U 22101AJ  23031.48644838  .00006677  00000-0  43702-3 0  9992,2 53559  53.2164 111.2761 0001026  59.1276 300.9817 15.08854243 25238,6917.837,95.437,540.412,538.992,0.0
53559.0,STARLINK-4508,PAYLOAD,2023-01-31 14:51:15,15.0886046,0.0001177,53.216,110.6798,81.3016,278.8109,0.00050031,7.688e-05,0.0,0 STARLINK-4508,1 53559U 22101AJ  23031.61892518  .00007688  00000-0  50031-3 0  9993,2 53559  53.2160 110.6798 0001177  81.3016 278.8109 15.08860460 25250,6917.818,95.436,540.497,538.869,0.0
53559.0,STARLINK-4508,PAYLOAD,2023-02-01 11:31:15,15.08861284,0.0001275,53.2167,106.8145,92.5636,267.5503,0.00026715,3.969e-05,0.0,0 STARLINK-4508,1 53559U 22101AJ  23032.48004092  .00003969  00000-0  26715-3 0  9991,2 53559  53.2167 106.8145 0001275  92.5636 267.5503 15.08861284 25383,6917.815,95.436,540.562,538.798,0.0
53559.0,STARLINK-4508,PAYLOAD,2023-02-01 13:06:38,15.08862885,0.0001275,53.2161,106.5164,98.6328,261.4809,0.00027388,4.076e-05,0.0,0 STARLINK-4508,1 53559U 22101AJ  23032.54627896  .00004076  00000-0  27388-3 0  9998,2 53559  53.2161 106.5164 0001275  98.6328 261.4809 15.08862885 25391,6917.81,95.436,540.557,538.793,0.0
53559.0,STARLINK-4508,PAYLOAD,2023-02-02 12:57:25,15.08845549,0.0001373,53.2171,102.0545,100.0175,260.0972,4.1711e-05,3.76e-06,0.0,0 STARLINK-4508,1 53559U 22101AJ  23033.53988115  .00000376  00000-0  41711-4 0  9998,2 53559  53.2171 102.0545 0001373 100.0175 260.0972 15.08845549 25544,6917.863,95.437,540.678,538.779,0.0
53559.0,STARLINK-4508,PAYLOAD,2023-02-02 20:54:21,15.08835035,0.0001539,53.2183,100.5677,81.3727,278.7439,-6.3879e-05,-1.304e-05,0.0,0 STARLINK-4508,1 53559U 22101AJ  23033.87108664 -.00001304  00000-0 -63879-4 0  9991,2 53559  53.2183 100.5677 0001539  81.3727 278.7439 15.08835035 25592,6917.896,95.438,540.825,538.696,0.0
53559.0,STARLINK-4508,PAYLOAD,2023-02-03 09:37:26,15.08838419,0.0001534,53.2161,98.1899,102.6905,257.4259,5.6416e-06,-1.98e-06,0.0,0 STARLINK-4508,1 53559U 22101AJ  23034.40100617 -.00000198  00000-0  56416-5 0  9990,2 53559  53.2161  98.1899 0001534 102.6905 257.4259 15.08838419 25678,6917.885,95.438,540.811,538.689,0.0
53559.0,STARLINK-4508,PAYLOAD,2023-02-04 11:03:36,15.08849827,0.0001517,53.216,93.4322,99.9488,260.1676,0.00032797,4.937e-05,0.0,0 STARLINK-4508,1 53559U 22101AJ  23035.46084447  .00004937  00000-0  32797-3 0  9997,2 53559  53.2160  93.4322 0001517  99.9488 260.1676 15.08849827 25838,6917.85,95.437,540.765,538.666,0.0
53559.0,STARLINK-4508,PAYLOAD,2023-02-04 12:38:59,15.08854173,0.0001488,53.2161,93.135,99.0175,261.0985,0.00040991,6.244e-05,0.0,0 STARLINK-4508,1 53559U 22101AJ  23035.52708294  .00006244  00000-0  40991-3 0  9995,2 53559  53.2161  93.1350 0001488  99.0175 261.0985 15.08854173 25842,6917.837,95.437,540.731,538.673,0.0
53559.0,STARLINK-4508,PAYLOAD,2023-02-04 20:35:56,15.08834103,0.0001398,53.2163,91.6485,91.9957,268.1195,-0.0002003,-3.474e-05,0.0,0 STARLINK-4508,1 53559U 22101AJ  23035.85828711 -.00003474  00000-0 -20030-3 0  9994,2 53559  53.2163  91.6485 0001398  91.9957 268.1195 15.08834103 25892,6917.898,95.438,540.731,538.796,0.0
53559.0,STARLINK-4508,PAYLOAD,2023-02-05 12:29:47,15.08844414,0.0001236,53.2155,88.6757,95.1556,264.9577,0.00036872,5.586e-05,0.0,0 STARLINK-4508,1 53559U 22101AJ  23036.52068625  .00005586  00000-0  36872-3 0  9994,2 53559  53.2155  88.6757 0001236  95.1556 264.9577 15.08844414 25998,6917.867,95.437,540.587,538.877,0.0
53559.0,STARLINK-4508,PAYLOAD,2023-02-05 20:26:43,15.08841731,0.0001239,53.2154,87.1872,86.7374,273.376,0.00048075,7.372e-05,0.0,0 STARLINK-4508,1 53559U 22101AJ  23036.85188798  .00007372  00000-0  48075-3 0  9997,2 53559  53.2154  87.1872 0001239  86.7374 273.3760 15.08841731 26040,6917.875,95.437,540.597,538.883,0.0
53559.0,STARLINK-4508,PAYLOAD,2023-02-06 02:48:15,15.08842768,0.0001342,53.2148,85.9979,84.6453,275.4692,0.00056214,8.67e-05,0.0,0 STARLINK-4508,1 53559U 22101AJ  23037.11684942  .00008670  00000-0  56214-3 0  9995,2 53559  53.2148  85.9979 0001342  84.6453 275.4692 15.08842768 26089,6917.872,95.437,540.665,538.809,0.0
